NORAD_CAT_ID,OBJECT_NAME,OBJECT_TYPE,EPOCH,MEAN_MOTION,ECCENTRICITY,INCLINATION,RA_OF_ASC_NODE,ARG_OF_PERICENTER,MEAN_ANOMALY,BSTAR,MEAN_MOTION_DOT,MEAN_MOTION_DDOT,TLE_LINE0,TLE_LINE1,TLE_LINE2,SEMIMAJOR_AXIS,PERIOD,APOGEE,PERIGEE,DECAYED
51775.0,STARLINK-3620,PAYLOAD,2024-01-27 12:17:04,15.08817685,0.0001494,53.2172,205.5604,80.6082,279.5079,0.00033939,5.114e-05,0.0,0 STARLINK-3620,1 51775U 22017H   24027.51185323  .00005114  00000-0  33939-3 0  9991,2 51775  53.2172 205.5604 0001494  80.6082 279.5079 15.08817685107489,6917.949,95.439,540.847,538.78,0.0
51775.0,STARLINK-3620,PAYLOAD,2024-01-27 18:38:36,15.08823416,0.0001403,53.2168,204.3709,82.7056,277.4095,0.00025466,3.766e-05,0.0,0 STARLINK-3620,1 51775U 22017H   24027.77681442  .00003766  00000-0  25466-3 0  9999,2 51775  53.2168 204.3709 0001403  82.7056 277.4095 15.08823416106079,6917.931,95.439,540.767,538.825,0.0
51775.0,STARLINK-3620,PAYLOAD,2024-01-28 12:07:51,15.088398,0.000142,53.2173,201.1024,96.1668,263.9486,-3.5818e-05,-8.58e-06,0.0,0 STARLINK-3620,1 51775U 22017H   24028.50545349 -.00000858  00000-0 -35818-4 0  9990,2 51775  53.2173 201.1024 0001420  96.1668 263.9486 15.08839800107638,6917.881,95.438,540.728,538.764,0.0
51775.0,STARLINK-3620,PAYLOAD,2024-01-28 16:54:00,15.08844352,0.0001372,53.2171,200.2104,97.3631,262.7517,-6.2029e-05,-1.275e-05,0.0,0 STARLINK-3620,1 51775U 22017H   24028.70417145 -.00001275  00000-0 -62029-4 0  9992,2 51775  53.2171 200.2104 0001372  97.3631 262.7517 15.08844352106217,6917.867,95.437,540.681,538.783,0.0
51775.0,STARLINK-3620,PAYLOAD,2024-01-29 21:30:56,15.0884037,0.0001391,53.217,194.8571,91.2998,268.8154,7.7039e-05,9.38e-06,0.0,0 STARLINK-3620,1 51775U 22017H   24029.89649150  .00000938  00000-0  77039-4 0  9996,2 51775  53.2170 194.8571 0001391  91.2998 268.8154 15.08840370106391,6917.879,95.438,540.707,538.782,0.0
51775.0,STARLINK-3620,PAYLOAD,2024-01-30 19:46:20,15.08840382,0.0001391,53.217,190.6914,92.0791,268.0361,7.0333e-05,8.32e-06,0.0,0 STARLINK-3620,1 51775U 22017H   24030.82385366  .00000832  00000-0  70333-4 0  9990,2 51775  53.2170 190.6914 0001391  92.0791 268.0361 15.08840382106537,6917.879,95.438,540.706,538.782,0.0
51775.0,STARLINK-3620,PAYLOAD,2024-01-31 10:04:49,15.08837658,0.0001441,53.2164,188.0198,81.5333,278.5822,4.5722e-05,4.4e-06,0.0,0 STARLINK-3620,1 51775U 22017H   24031.42001791  .00000440  00000-0  45722-4 0  9993,2 51775  53.2164 188.0198 0001441  81.5333 278.5822 15.08837658108077,6917.888,95.438,540.749,538.756,0.0
51775.0,STARLINK-3620,PAYLOAD,2024-02-01 09:55:36,15.08836678,0.0001537,53.2168,183.559,78.9678,281.1486,6.0523e-05,6.75e-06,0.0,0 STARLINK-3620,1 51775U 22017H   24032.41361952  .00000675  00000-0  60523-4 0  9997,2 51775  53.2168 183.5590 0001537  78.9678 281.1486 15.08836678106777,6917.891,95.438,540.819,538.692,0.0
51775.0,STARLINK-3620,PAYLOAD,2024-02-01 17:52:32,15.0884309,0.0001392,53.2166,182.0705,86.6099,273.5053,7.3452e-05,8.81e-06,0.0,0 STARLINK-3620,1 51775U 22017H   24032.74481503  .00000881  00000-0  73452-4 0  9992,2 51775  53.2166 182.0705 0001392  86.6099 273.5053 15.08843090108277,6917.871,95.437,540.699,538.773,0.0
51775.0,STARLINK-3620,PAYLOAD,2024-02-02 14:32:32,15.0884056,0.0001419,53.217,178.2042,87.843,272.2724,6.9354e-05,8.16e-06,0.0,0 STARLINK-3620,1 51775U 22017H   24033.60593677  .00000816  00000-0  69354-4 0  9998,2 51775  53.2170 178.2042 0001419  87.8430 272.2724 15.08840560106958,6917.879,95.438,540.725,538.762,0.0
51775.0,STARLINK-3620,PAYLOAD,2024-02-02 19:18:42,15.08844119,0.0001454,53.2169,177.3117,87.7741,272.3418,9.3941e-05,1.208e-05,0.0,0 STARLINK-3620,1 51775U 22017H   24033.80465366  .00001208  00000-0  93941-4 0  9998,2 51775  53.2169 177.3117 0001454  87.7741 272.3418 15.08844119108432,6917.868,95.437,540.739,538.727,0.0
51775.0,STARLINK-3620,PAYLOAD,2024-02-03 12:47:56,15.08843143,0.0001304,53.2169,174.0392,96.4485,263.6655,-5.516e-06,-3.76e-06,0.0,0 STARLINK-3620,1 51775U 22017H   24034.53329704 -.00000376  00000-0 -55160-5 0  9993,2 51775  53.2169 174.0392 0001304  96.4485 263.6655 15.08843143107090,6917.871,95.437,540.638,538.834,0.0
51775.0,STARLINK-3620,PAYLOAD,2024-02-03 15:58:43,15.08840701,0.0001448,53.2171,173.4454,87.2592,272.8566,1.0379e-05,-1.23e-06,0.0,0 STARLINK-3620,1 51775U 22017H   24034.66577837 -.00000123  00000-0  10379-4 0  9990,2 51775  53.2171 173.4454 0001448  87.2592 272.8566 15.08840701108564,6917.878,95.438,540.745,538.742,0.0
51775.0,STARLINK-3620,PAYLOAD,2024-02-04 14:14:07,15.08840498,0.0001448,53.2168,169.2812,92.3751,267.7407,2.4809e-05,1.07e-06,0.0,0 STARLINK-3620,1 51775U 22017H   24035.59313841  .00000107  00000-0  24809-4 0  9990,2 51775  53.2168 169.2812 0001448  92.3751 267.7407 15.08840498107250,6917.879,95.438,540.746,538.742,0.0
51775.0,STARLINK-3620,PAYLOAD,2024-02-05 12:29:31,15.08836489,0.0001419,53.2173,165.1238,94.2802,265.8352,4.3319e-05,4.01e-06,0.0,0 STARLINK-3620,1 51775U 22017H   24036.52050199  .00000401  00000-0  43319-4 0  9992,2 51775  53.2173 165.1238 0001419  94.2802 265.8352 15.08836489108848,6917.891,95.438,540.738,538.774,0.0
51775.0,STARLINK-3620,PAYLOAD,2024-02-05 14:04:54,15.08837306,0.000142,53.2172,164.8265,93.9095,266.206,4.9727e-05,5.04e-06,0.0,0 STARLINK-3620,1 51775U 22017H   24036.58674144  .00000504  00000-0  49727-4 0  9993,2 51775  53.2172 164.8265 0001420  93.9095 266.2060 15.08837306107406,6917.889,95.438,540.736,538.771,0.0
51775.0,STARLINK-3620,PAYLOAD,2024-02-06 13:55:41,15.0884055,0.0001556,53.2181,160.3664,98.5433,261.5736,5.8578e-05,6.44e-06,0.0,0 STARLINK-3620,1 51775U 22017H   24037.58034059  .00000644  00000-0  58578-4 0  9998,2 51775  53.2181 160.3664 0001556  98.5433 261.5736 15.08840550107556,6917.879,95.438,540.82,538.667,0.0
51775.0,STARLINK-3620,PAYLOAD,2024-02-06 15:31:04,15.08841957,0.0001628,53.2171,160.0676,95.5099,264.6079,4.9452e-05,4.99e-06,0.0,0 STARLINK-3620,1 51775U 22017H   24037.64658025  .00000499  00000-0  49452-4 0  9999,2 51775  53.2171 160.0676 0001628  95.5099 264.6079 15.08841957109019,6917.874,95.437,540.866,538.613,0.0
51775.0,STARLINK-3620,PAYLOAD,2024-02-07 12:11:06,15.08831901,0.0001573,53.2181,156.2032,89.9142,270.203,-9.4864e-06,-4.39e-06,0.0,0 STARLINK-3620,1 51775U 22017H   24038.50771243 -.00000439  00000-0 -94864-5 0  9997,2 51775  53.2181 156.2032 0001573  89.9142 270.2030 15.08831901109140,6917.905,95.438,540.858,538.682,0.0
51775.0,STARLINK-3620,PAYLOAD,2024-02-07 13:46:29,15.08832714,0.0001647,53.2176,155.9054,77.156,282.9616,-5.812e-06,-3.81e-06,0.0,0 STARLINK-3620,1 51775U 22017H   24038.57395293 -.00000381  00000-0 -58120-5 0  9992,2 51775  53.2176 155.9054 0001647  77.1560 282.9616 15.08832714107702,6917.903,95.438,540.907,538.628,0.0
51775.0,STARLINK-3620,PAYLOAD,2024-02-07 15:21:52,15.08834227,0.0001708,53.2177,155.608,72.6353,287.4826,6.8964e-06,-1.78e-06,0.0,0 STARLINK-3620,1 51775U 22017H   24038.64019224 -.00000178  00000-0  68964-5 0  9997,2 51775  53.2177 155.6080 0001708  72.6353 287.4826 15.08834227107712,6917.898,95.438,540.945,538.581,0.0
51775.0,STARLINK-3620,PAYLOAD,2024-02-08 13:37:16,15.08842242,0.0001627,53.216,151.4461,75.0005,285.1167,1.5766e-05,-3.7e-07,0.0,0 STARLINK-3620,1 51775U 22017H   24039.56755016 -.00000037  00000-0  15766-4 0  9990,2 51775  53.2160 151.4461 0001627  75.0005 285.1167 15.08842242107856,6917.874,95.437,540.864,538.613,0.0
51775.0,STARLINK-3620,PAYLOAD,2024-02-09 11:52:39,15.08851383,0.0001688,53.2167,147.2827,77.7921,282.326,0.00018661,2.684e-05,0.0,0 STARLINK-3620,1 51775U 22017H   24040.49489864  .00002684  00000-0  18661-3 0  9994,2 51775  53.2167 147.2827 0001688  77.7921 282.3260 15.08851383109441,6917.846,95.437,540.878,538.543,0.0
51775.0,STARLINK-3620,PAYLOAD,2024-02-09 13:28:02,15.08853438,0.0001703,53.2166,146.9851,78.258,281.8604,0.00020931,3.046e-05,0.0,0 STARLINK-3620,1 51775U 22017H   24040.56113702  .00003046  00000-0  20931-3 0  9993,2 51775  53.2166 146.9851 0001703  78.2580 281.8604 15.08853438108008,6917.839,95.437,540.882,538.526,0.0
51775.0,STARLINK-3620,PAYLOAD,2024-02-10 11:43:27,15.08839795,0.0001574,53.2172,142.8211,100.0111,260.1059,7.0685e-05,8.37e-06,0.0,0 STARLINK-3620,1 51775U 22017H   24041.48850974  .00000837  00000-0  70685-4 0  9991,2 51775  53.2172 142.8211 0001574 100.0111 260.1059 15.08839795109599,6917.881,95.438,540.835,538.657,0.0
51775.0,STARLINK-3620,PAYLOAD,2024-02-10 13:18:50,15.08843682,0.0001647,53.2168,142.5267,115.2852,244.8311,1.1257e-05,-1.09e-06,0.0,0 STARLINK-3620,1 51775U 22017H   24041.55474838 -.00000109  00000-0  11257-4 0  9993,2 51775  53.2168 142.5267 0001647 115.2852 244.8311 15.08843682108154,6917.869,95.437,540.874,538.595,0.0
51775.0,STARLINK-3620,PAYLOAD,2024-02-10 16:29:36,15.08843233,0.0001695,53.2167,141.9226,123.0625,237.053,3.2238e-05,2.25e-06,0.0,0 STARLINK-3620,1 51775U 22017H   24041.68722649  .00000225  00000-0  32238-4 0  9993,2 51775  53.2167 141.9226 0001695 123.0625 237.0530 15.08843233108170,6917.871,95.437,540.908,538.563,0.0
51775.0,STARLINK-3620,PAYLOAD,2024-02-11 11:34:13,15.08849198,0.0001482,53.2154,138.3554,111.7335,248.3814,9.9011e-06,-1.3e-06,0.0,0 STARLINK-3620,1 51775U 22017H   24042.48210126 -.00000130  00000-0  99011-5 0  9993,2 51775  53.2154 138.3554 0001482 111.7335 248.3814 15.08849198109746,6917.852,95.437,540.743,538.692,0.0
51775.0,STARLINK-3620,PAYLOAD,2024-02-11 16:20:22,15.08853826,0.000168,53.2159,137.4618,118.6954,241.4208,8.2114e-05,1.019e-05,0.0,0 STARLINK-3620,1 51775U 22017H   24042.68081792  .00001019  00000-0  82114-4 0  9991,2 51775  53.2159 137.4618 0001680 118.6954 241.4208 15.08853826108322,6917.838,95.437,540.865,538.541,0.0
51775.0,STARLINK-3620,PAYLOAD,2024-02-12 11:25:00,15.08850607,0.0001436,53.2165,133.893,107.499,252.6159,0.00023227,3.412e-05,0.0,0 STARLINK-3620,1 51775U 22017H   24043.47569802  .00003412  00000-0  23227-3 0  9990,2 51775  53.2165 133.8930 0001436 107.4990 252.6159 15.08850607108447,6917.848,95.437,540.706,538.72,0.0
